ORBCOMM FM24 [-]        
1 25478U 98053D   23239.11596168  .00001226  00000+0  47979-3 0  9996
2 25478  45.0087 149.2343 0000409 330.7041  29.3783 14.34569268302554
ORBCOMM FM25 [-]        
1 25479U 98053E   23239.21864309  .00001165  00000+0  45861-3 0  9993
2 25479  45.0082 146.9822 0002328 197.8395 162.2370 14.34560398302860
ORBCOMM FM26 [-]        
1 25480U 98053F   23239.76697864  .00000872  00000+0  35848-3 0  9993
2 25480  45.0073 137.5931 0004815 220.9035 139.1451 14.34163476302994
ORBCOMM FM27 [+]        
1 25481U 98053G   23239.75955032  .00001190  00000+0  46751-3 0  9996
2 25481  45.0063 144.6835 0001894 344.6588  15.4201 14.34529424302917
ORBCOMM FM28 [-]        
1 25482U 98053H   23239.06517910  .00000960  00000+0  38297-3 0  9990
2 25482  45.0068  87.3573 0003173 233.0874 126.9683 14.35040624303437
ORBCOMM FM30 [-]        
1 25980U 99065A   23239.61350626  .00000835  00000+0  34457-3 0  9992
2 25980  45.0333 323.5878 0006599 293.9220  66.0936 14.34286996240194
ORBCOMM FM31 [-]        
1 25981U 99065B   23239.30380048  .00000859  00000+0  35269-3 0  9998
2 25981  45.0247 318.9590 0003463 299.7872  60.2630 14.34324113239179
ORBCOMM FM32 [+]        
1 25982U 99065C   23239.30716146  .00000799  00000+0  33858-3 0  9996
2 25982  45.0180 330.8465 0005134 315.4590  44.5843 14.33270636239833
